{"type":"FeatureCollection","features":[{"type":"Feature","properties":{"ma":"32","ten":"An Giang"},"geometry":{"type":"MultiPolygon","coordinates":[[[[103.4919,9.3202],[103.5055,9.3202],[103.508,9.3179],[103.5107,9.3093],[103.5033,9.3073],[103.5007,9.3024],[103.5041,9.2997],[103.5036,9.2975],[103.4993,9.3009],[103.4961,9.3009],[103.4928,9.2961],[103.4895,9.295],[103.4848,9.2864],[103.4805,9.2884],[103.4754,9.2861],[103.4718,9.2918],[103.4762,9.2992],[103.4743,9.303],[103.4717,9.3045],[103.4605,9.3027],[103.4585,9.3045],[103.4595,9.308],[103.4624,9.3123],[103.4736,9.3187],[103.4824,9.3211],[103.4919,9.3202]]],[[[103.5348,9.3237],[103.5322,9.3206],[103.5337,9.3157],[103.5225,9.3222],[103.5289,9.328],[103.5348,9.3237]]],[[[103.5414,9.3281],[103.5428,9.3247],[103.5391,9.3289],[103.5351,9.3299],[103.5418,9.3358],[103.5414,9.3281]]],[[[104.094,9.8443],[104.0933,9.8498],[104.0975,9.852],[104.0975,9.846],[104.0948,9.8429],[104.094,9.8443]]],[[[103.9937,9.912],[103.9907,9.9087],[103.9856,9.9119],[103.9891,9.9143],[103.995,9.9134],[103.9937,9.912]]],[[[104.0159,9.9093],[104.0144,9.911],[104.0095,9.9107],[104.01,9.9145],[104.0135,9.9132],[104.0183,9.9145],[104.0159,9.9093]]],[[[103.9996,9.9182],[103.9963,9.9191],[103.9959,9.9209],[104.0017,9.923],[104.0034,9.915],[103.9996,9.9182]]],[[[104.0167,9.9289],[104.0174,9.9333],[104.021,9.934],[104.0229,9.9323],[104.023,9.9299],[104.0191,9.9276],[104.0167,9.9289]]],[[[104.0175,9.968],[104.0233,9.9596],[104.0222,9.9494],[104.0263,9.9455],[104.0226,9.9396],[104.0104,9.9486],[104.0139,9.9547],[104.0105,9.9579],[104.0129,9.9621],[104.0097,9.9644],[104.0099,9.9702],[104.0175,9.968]]],[[[104.0257,9.9736],[104.0273,9.9704],[104.0259,9.9686],[104.0221,9.973],[104.0179,9.9735],[104.0135,9.984],[104.0194,9.9836],[104.0238,9.9793],[104.0257,9.9736]]],[[[104.0145,9.9922],[104.0092,9.9914],[104.0072,9.9946],[104.0072,10.0014],[104.0132,9.9967],[104.0145,9.9922]]],[[[104.0353,10.0711],[104.0425,10.0687],[104.0424,10.0605],[104.0389,10.0606],[104.0355,10.0561],[104.0348,10.0451],[104.0385,10.0406],[104.0366,10.0389],[104.0342,10.0409],[104.0324,10.0395],[104.0306,10.0305],[104.0394,10.0198],[104.0423,10.0133],[104.0454,10.0119],[104.0471,10.014],[104.0501,10.0119],[104.0521,10.0052],[104.0456,10.0077],[104.0383,10.016],[104.0345,10.0149],[104.0311,10.0106],[104.0256,10.0168],[104.0193,10.018],[104.0147,10.0162],[104.0133,10.0102],[104.0093,10.0107],[104.0085,10.022],[104.0066,10.0291],[104.0018,10.0344],[104.0034,10.0362],[104.0008,10.0436],[103.9989,10.046],[103.9923,10.0472],[103.9889,10.0547],[103.9904,10.0599],[103.9871,10.0838],[103.9702,10.1663],[103.9608,10.2066],[103.9485,10.2425],[103.941,10.2544],[103.9301,10.2632],[103.9223,10.2797],[103.9133,10.2896],[103.9067,10.2927],[103.8975,10.2898],[103.8886,10.2917],[103.8827,10.3013],[103.8736,10.307],[103.8653,10.3078],[103.8615,10.3059],[103.8619,10.3021],[103.8605,10.3024],[103.8593,10.3061],[103.8556,10.3092],[103.8567,10.3117],[103.8505,10.326],[103.8421,10.3564],[103.8325,10.3628],[103.834,10.3679],[103.838,10.3712],[103.8359,10.3769],[103.8377,10.3783],[103.8437,10.3775],[103.8467,10.3746],[103.8519,10.3778],[103.8564,10.3748],[103.8684,10.3737],[103.8742,10.3709],[103.8885,10.3702],[103.9007,10.3651],[103.9163,10.3626],[103.9197,10.3599],[103.9267,10.3614],[103.9354,10.3691],[103.9415,10.3799],[103.947,10.4019],[103.9527,10.4053],[103.9672,10.4088],[103.9715,10.4234],[103.9731,10.4399],[103.9819,10.4485],[103.9951,10.4524],[104.007,10.4476],[104.0195,10.4263],[104.0289,10.4151],[104.0351,10.4125],[104.0404,10.4158],[104.0509,10.4046],[104.0574,10.4027],[104.0574,10.3997],[104.0613,10.3962],[104.0632,10.3907],[104.0742,10.3794],[104.0791,10.3704],[104.077,10.3646],[104.0806,10.3544],[104.0746,10.3497],[104.0727,10.3379],[104.0799,10.3075],[104.0747,10.2751],[104.0805,10.2553],[104.081,10.2451],[104.0706,10.2151],[104.0607,10.2082],[104.0562,10.2012],[104.0511,10.1873],[104.0434,10.1527],[104.0349,10.1463],[104.0309,10.1376],[104.0304,10.1324],[104.0338,10.1282],[104.0362,10.1188],[104.0327,10.1119],[104.0269,10.1075],[104.0256,10.0917],[104.018,10.0829],[104.0244,10.0736],[104.0276,10.079],[104.0346,10.0736],[104.0353,10.0711]]],[[[104.3587,9.682],[104.3623,9.6617],[104.3609,9.6595],[104.3543,9.66],[104.3518,9.6667],[104.3487,9.6674],[104.347,9.6715],[104.3466,9.6854],[104.3518,9.6879],[104.3508,9.6922],[104.3558,9.6924],[104.3536,9.7044],[104.3544,9.7116],[104.361,9.7056],[104.3605,9.7011],[104.3631,9.6959],[104.3622,9.6934],[104.3586,9.6918],[104.3587,9.682]]],[[[104.3889,9.7007],[104.385,9.6967],[104.3839,9.6975],[104.3838,9.7099],[104.3853,9.7074],[104.3887,9.7084],[104.3889,9.7007]]],[[[104.3523,9.7245],[104.3528,9.7281],[104.3548,9.7282],[104.3547,9.7186],[104.3523,9.7245]]],[[[104.3629,9.743],[104.3669,9.7408],[104.3618,9.7359],[104.3606,9.7364],[104.3629,9.743]]],[[[104.3245,10.2833],[104.3253,10.2876],[104.333,10.2886],[104.3355,10.2863],[104.3245,10.2833]]],[[[104.3383,10.2902],[104.3401,10.2971],[104.3429,10.2974],[104.3426,10.2925],[104.3401,10.2898],[104.3383,10.2902]]],[[[104.3335,10.3166],[104.3285,10.3126],[104.3218,10.3191],[104.3243,10.3221],[104.3296,10.319],[104.332,10.321],[104.3321,10.3237],[104.338,10.3211],[104.3335,10.3166]]],[[[104.3326,10.3987],[104.3322,10.3963],[104.3299,10.3962],[104.33,10.3933],[104.3269,10.3942],[104.3264,10.3976],[104.3308,10.3982],[104.331,10.4017],[104.3354,10.4032],[104.3326,10.3987]]],[[[104.4032,9.6336],[104.4013,9.6309],[104.4012,9.6343],[104.3959,9.634],[104.3943,9.637],[104.404,9.6387],[104.4071,9.6415],[104.4066,9.639],[104.403,9.6379],[104.4032,9.6336]]],[[[104.3905,9.6562],[104.3927,9.6562],[104.3936,9.6531],[104.3896,9.6454],[104.3905,9.6562]]],[[[104.4031,9.6639],[104.3946,9.6597],[104.3997,9.6683],[104.399,9.6746],[104.4008,9.6762],[104.4037,9.6737],[104.4069,9.6741],[104.4014,9.6677],[104.4031,9.6639]]],[[[104.3875,9.6818],[104.3887,9.6881],[104.3935,9.6918],[104.3962,9.691],[104.3913,9.6825],[104.3875,9.6818]]],[[[104.5167,10.1033],[104.513,10.0945],[104.5118,10.0973],[104.5138,10.1],[104.512,10.1044],[104.5139,10.1057],[104.5167,10.1033]]],[[[104.5052,10.1063],[104.5009,10.106],[104.4963,10.1015],[104.4993,10.1119],[104.5012,10.112],[104.5052,10.1063]]],[[[104.5241,10.1551],[104.5205,10.1476],[104.5182,10.1508],[104.5243,10.1576],[104.5246,10.1602],[104.5261,10.1588],[104.5241,10.1551]]],[[[104.652,9.818],[104.6573,9.8183],[104.6589,9.8125],[104.6551,9.8024],[104.6497,9.7963],[104.6372,9.7932],[104.6289,9.7993],[104.6169,9.7958],[104.6119,9.7983],[104.6085,9.7962],[104.6064,9.7972],[104.609,9.8018],[104.6137,9.8016],[104.6183,9.8118],[104.6329,9.8224],[104.6367,9.8229],[104.6456,9.8184],[104.652,9.818]]],[[[104.8484,9.9708],[104.8456,9.9677],[104.8412,9.9523],[104.8359,9.9483],[104.8313,9.9516],[104.8273,9.9588],[104.8285,9.9677],[104.8333,9.9714],[104.8377,9.9715],[104.8392,9.9747],[104.8466,9.9746],[104.8513,9.9777],[104.8557,9.9777],[104.858,9.9744],[104.8484,9.9708]]],[[[104.4806,10.3768],[104.4769,10.3779],[104.4718,10.3751],[104.4648,10.3766],[104.4598,10.3691],[104.4533,10.3695],[104.4521,10.3667],[104.4453,10.3643],[104.4426,10.3651],[104.4436,10.371],[104.4461,10.3739],[104.4459,10.3797],[104.4436,10.384],[104.4458,10.3846],[104.4457,10.3893],[104.4524,10.396],[104.4528,10.4],[104.4473,10.4138],[104.4389,10.4235],[104.4634,10.4292],[104.4799,10.43],[104.4851,10.4251],[104.4981,10.4047],[104.5192,10.4417],[104.5276,10.4469],[104.5421,10.448],[104.5519,10.4569],[104.558,10.4723],[104.5593,10.4928],[104.5841,10.5055],[104.5868,10.5104],[104.5871,10.5269],[104.5891,10.5298],[104.6019,10.5344],[104.6093,10.533],[104.6163,10.5286],[104.644,10.5299],[104.6436,10.5405],[104.687,10.5388],[104.721,10.5306],[104.7542,10.5188],[104.8684,10.5222],[104.8976,10.5488],[104.9347,10.614],[104.9524,10.6364],[105.0977,10.7217],[105.0914,10.7552],[105.0755,10.7772],[105.0639,10.7804],[105.0622,10.7981],[105.0558,10.8027],[105.0582,10.8202],[105.0343,10.8696],[105.0284,10.8916],[105.0438,10.8994],[105.0459,10.8989],[105.0474,10.9019],[105.0432,10.9106],[105.0557,10.9156],[105.0522,10.9249],[105.0531,10.928],[105.0681,10.9374],[105.0785,10.935],[105.0792,10.9521],[105.0827,10.9557],[105.098,10.9549],[105.1132,10.9621],[105.1176,10.9603],[105.1173,10.9447],[105.1001,10.9216],[105.1092,10.9176],[105.1563,10.9235],[105.1809,10.9132],[105.189,10.9118],[105.1854,10.8969],[105.1854,10.8832],[105.1903,10.8551],[105.1942,10.8471],[105.1993,10.8453],[105.2095,10.8495],[105.2195,10.8266],[105.2346,10.8057],[105.2613,10.7999],[105.2619,10.7919],[105.2584,10.7803],[105.2606,10.7723],[105.2641,10.7691],[105.2752,10.7639],[105.2984,10.7626],[105.3038,10.7588],[105.3041,10.7536],[105.3021,10.7489],[105.2784,10.7337],[105.2755,10.7285],[105.2778,10.7235],[105.2893,10.7179],[105.3004,10.7161],[105.3371,10.7233],[105.3446,10.7208],[105.3503,10.7148],[105.346,10.6924],[105.3379,10.6734],[105.3392,10.6536],[105.3469,10.6238],[105.3711,10.5732],[105.3937,10.5689],[105.413,10.5512],[105.4188,10.5497],[105.4458,10.5528],[105.4787,10.5355],[105.4823,10.5357],[105.4884,10.5423],[105.5132,10.547],[105.532,10.5378],[105.5502,10.5213],[105.5577,10.5081],[105.5736,10.4685],[105.5753,10.4474],[105.5728,10.4396],[105.574,10.4287],[105.5668,10.4292],[105.5548,10.4343],[105.5514,10.4294],[105.5486,10.4295],[105.5495,10.4248],[105.5464,10.4208],[105.5523,10.4188],[105.5526,10.4169],[105.5453,10.4128],[105.5396,10.4132],[105.5366,10.4098],[105.5318,10.4082],[105.5297,10.4004],[105.524,10.4004],[105.5288,10.3759],[105.5206,10.3695],[105.5206,10.363],[105.5141,10.3619],[105.5077,10.3558],[105.5011,10.3549],[105.4911,10.3455],[105.4915,10.3384],[105.4877,10.3346],[105.4954,10.3253],[105.4873,10.3239],[105.4846,10.3164],[105.4771,10.3106],[105.4514,10.308],[105.4478,10.3047],[105.4433,10.3062],[105.4267,10.303],[105.4414,10.2697],[105.3972,10.2528],[105.3362,10.2344],[105.312,10.2739],[105.3065,10.2689],[105.3013,10.277],[105.2875,10.2621],[105.2889,10.2599],[105.2671,10.2389],[105.2609,10.2459],[105.2531,10.2385],[105.2257,10.201],[105.2758,10.1608],[105.2982,10.1385],[105.3033,10.1436],[105.3105,10.1348],[105.3171,10.1412],[105.3531,10.1006],[105.3568,10.0825],[105.3647,10.073],[105.5396,9.913],[105.5167,9.8631],[105.5211,9.8591],[105.4766,9.8326],[105.4678,9.8303],[105.4615,9.8253],[105.4306,9.816],[105.4339,9.7961],[105.4373,9.7927],[105.4353,9.7932],[105.4337,9.7903],[105.4313,9.7908],[105.4311,9.7884],[105.4285,9.7894],[105.4255,9.7869],[105.4278,9.7852],[105.4271,9.7834],[105.4251,9.7828],[105.4225,9.7853],[105.4219,9.7784],[105.4177,9.7828],[105.4193,9.7773],[105.4138,9.7788],[105.4169,9.7753],[105.4163,9.7735],[105.4109,9.7773],[105.4094,9.7719],[105.4135,9.7727],[105.4143,9.7708],[105.4049,9.7697],[105.4069,9.7598],[105.4127,9.7611],[105.4147,9.7579],[105.4152,9.7548],[105.4112,9.7486],[105.403,9.7503],[105.3933,9.7445],[105.3925,9.738],[105.3905,9.7356],[105.3767,9.7328],[105.3704,9.7295],[105.3565,9.7123],[105.3388,9.7037],[105.328,9.7015],[105.3286,9.6975],[105.3378,9.6885],[105.338,9.6779],[105.3395,9.676],[105.3525,9.6765],[105.355,9.6697],[105.3571,9.6685],[105.3725,9.6728],[105.3739,9.6696],[105.3686,9.6635],[105.37,9.6594],[105.3774,9.6613],[105.3871,9.658],[105.3938,9.6603],[105.404,9.6524],[105.4067,9.6522],[105.4012,9.6464],[105.4017,9.6447],[105.4068,9.645],[105.407,9.6436],[105.3995,9.6317],[105.3994,9.622],[105.3902,9.6258],[105.3884,9.6219],[105.3814,9.6196],[105.3794,9.6153],[105.3774,9.6155],[105.3751,9.6103],[105.376,9.5989],[105.3738,9.5961],[105.3708,9.5963],[105.3708,9.5883],[105.368,9.5881],[105.3634,9.5924],[105.3507,9.5941],[105.3452,9.5928],[105.3448,9.5949],[105.3479,9.5994],[105.3423,9.604],[105.3414,9.6126],[105.3391,9.6114],[105.3382,9.6061],[105.3319,9.6042],[105.3292,9.5993],[105.3236,9.6041],[105.3085,9.6078],[105.3029,9.6206],[105.3033,9.6286],[105.2976,9.6296],[105.2947,9.6374],[105.292,9.6367],[105.2861,9.6245],[105.2889,9.6141],[105.2864,9.5998],[105.2909,9.5947],[105.2949,9.5846],[105.3126,9.5723],[105.308,9.564],[105.3076,9.5563],[105.3097,9.5557],[105.3181,9.5604],[105.3238,9.5588],[105.3224,9.5454],[105.3266,9.5394],[105.3264,9.5315],[105.3298,9.5276],[105.327,9.525],[105.3199,9.5251],[105.3234,9.5169],[105.3158,9.5103],[105.3169,9.5051],[105.3155,9.5025],[105.3098,9.5073],[105.3054,9.5036],[105.301,9.5069],[105.2988,9.5051],[105.298,9.4943],[105.294,9.4904],[105.294,9.4842],[105.2958,9.4822],[105.2927,9.477],[105.2913,9.4675],[105.2911,9.4563],[105.2947,9.4336],[105.2885,9.4351],[105.2781,9.4329],[105.2622,9.3993],[105.1318,9.4809],[105.0031,9.5585],[104.9976,9.5431],[104.9927,9.539],[104.9738,9.5463],[104.9631,9.5559],[104.9459,9.5327],[104.9165,9.5617],[104.8812,9.494],[104.8544,9.5179],[104.8458,9.5294],[104.8355,9.5306],[104.8505,9.6812],[104.8613,9.7282],[104.8746,9.7678],[104.8764,9.7688],[104.8839,9.8161],[104.8876,9.8306],[104.891,9.8348],[104.894,9.8449],[104.9036,9.8531],[104.9286,9.8502],[104.9401,9.8512],[104.9515,9.8556],[104.955,9.8547],[104.973,9.8703],[105.0093,9.9105],[105.043,9.9383],[105.0583,9.9461],[105.0738,9.9489],[105.081,9.9459],[105.0886,9.9267],[105.0975,9.9265],[105.0989,9.9295],[105.1037,9.9312],[105.1062,9.951],[105.1029,9.9525],[105.0855,9.9902],[105.0825,9.9914],[105.0833,9.9951],[105.0762,10.0083],[105.0761,10.012],[105.0636,10.0217],[105.0523,10.0368],[105.0485,10.0389],[104.9913,10.0987],[104.9867,10.0969],[104.9703,10.0988],[104.9501,10.0966],[104.9028,10.0863],[104.8936,10.0862],[104.8841,10.0899],[104.8772,10.095],[104.8634,10.1105],[104.8433,10.1464],[104.8162,10.1838],[104.7959,10.2028],[104.7874,10.2067],[104.7792,10.2139],[104.7625,10.2217],[104.7415,10.2275],[104.7328,10.2278],[104.7201,10.2226],[104.6984,10.2092],[104.6792,10.1912],[104.6705,10.1804],[104.6657,10.17],[104.6579,10.1648],[104.6467,10.1471],[104.646,10.1431],[104.6489,10.1409],[104.6449,10.1373],[104.6399,10.1364],[104.6375,10.1412],[104.6339,10.1433],[104.6291,10.1444],[104.6283,10.1418],[104.627,10.1443],[104.6162,10.148],[104.6103,10.146],[104.6077,10.1425],[104.6035,10.1444],[104.6009,10.1433],[104.5989,10.1471],[104.6011,10.1467],[104.6018,10.1503],[104.6072,10.1544],[104.6102,10.1589],[104.6099,10.1618],[104.6047,10.1705],[104.6002,10.1696],[104.6014,10.1741],[104.5969,10.1826],[104.5924,10.1819],[104.5896,10.1862],[104.5901,10.1881],[104.5924,10.187],[104.5962,10.1886],[104.5967,10.1934],[104.5947,10.1966],[104.5916,10.1957],[104.5896,10.2059],[104.5857,10.2038],[104.5856,10.2084],[104.5876,10.2113],[104.5844,10.211],[104.5917,10.2124],[104.5928,10.2152],[104.5897,10.2308],[104.5852,10.2401],[104.5866,10.244],[104.5832,10.2466],[104.5829,10.2527],[104.5664,10.278],[104.5509,10.2901],[104.5431,10.2915],[104.5415,10.288],[104.5385,10.2869],[104.5348,10.2775],[104.5308,10.2773],[104.534,10.2868],[104.5331,10.2924],[104.5275,10.3012],[104.5281,10.3046],[104.5324,10.3091],[104.5277,10.3224],[104.5089,10.3491],[104.4886,10.3691],[104.4847,10.3757],[104.4806,10.3768]]],[[[104.5583,10.0327],[104.5618,10.0248],[104.5605,10.0173],[104.5509,10.0143],[104.5444,10.0305],[104.5479,10.0359],[104.5535,10.0375],[104.5543,10.0401],[104.5549,10.0362],[104.5583,10.0327]]],[[[104.545,10.1272],[104.5432,10.1224],[104.5404,10.1266],[104.544,10.1345],[104.546,10.1323],[104.545,10.1272]]],[[[104.5509,10.1398],[104.5478,10.1401],[104.5502,10.1461],[104.5531,10.1447],[104.5509,10.1398]]],[[[104.5811,10.1528],[104.5747,10.153],[104.5715,10.1559],[104.5821,10.156],[104.5811,10.1528]]],[[[104.5334,10.1801],[104.5314,10.1763],[104.5335,10.1757],[104.5349,10.1712],[104.5302,10.17],[104.5305,10.1779],[104.5241,10.1851],[104.5267,10.1889],[104.5324,10.1861],[104.5334,10.1801]]]]}},{"type":"Feature","properties":{"ma":"34","ten":"Cà Mau"},"geometry":{"type":"MultiPolygon","coordinates":[[[[104.8574,8.4197],[104.8539,8.4139],[104.8507,8.4125],[104.8486,8.4136],[104.8484,8.4183],[104.8516,8.4213],[104.8574,8.4197]]],[[[104.8445,8.4477],[104.8452,8.442],[104.8371,8.4374],[104.8392,8.4263],[104.8303,8.422],[104.8232,8.4219],[104.8194,8.4279],[104.8317,8.4389],[104.8325,8.4438],[104.8376,8.4469],[104.8403,8.4524],[104.8419,8.4527],[104.8416,8.4505],[104.8445,8.4477]]],[[[104.5264,8.9527],[104.5297,8.9449],[104.5286,8.9427],[104.5223,8.9482],[104.5242,8.9562],[104.5255,8.9564],[104.5264,8.9527]]],[[[104.8529,8.5672],[104.8504,8.5668],[104.8467,8.5626],[104.838,8.5612],[104.8251,8.566],[104.8169,8.5736],[104.8025,8.5797],[104.76,8.5886],[104.7525,8.5917],[104.7484,8.5913],[104.7301,8.5974],[104.7221,8.6018],[104.7216,8.6055],[104.7192,8.6052],[104.7173,8.6077],[104.7164,8.621],[104.7128,8.632],[104.7175,8.643],[104.7303,8.6499],[104.747,8.6427],[104.7524,8.6339],[104.7575,8.6405],[104.7807,8.6454],[104.7964,8.6523],[104.7956,8.6603],[104.7811,8.6826],[104.7792,8.6889],[104.7808,8.7042],[104.7867,8.7178],[104.7944,8.7275],[104.8249,8.7362],[104.8292,8.7347],[104.8338,8.7356],[104.8594,8.7433],[104.8604,8.7412],[104.8606,8.7437],[104.8674,8.7484],[104.8676,8.7542],[104.8737,8.7548],[104.877,8.7584],[104.8798,8.7693],[104.8818,8.7697],[104.8811,8.7722],[104.8861,8.7744],[104.8838,8.7763],[104.8868,8.7814],[104.8986,8.7875],[104.9039,8.7996],[104.9022,8.8],[104.9033,8.8022],[104.9014,8.8059],[104.9027,8.8079],[104.8991,8.8087],[104.897,8.8011],[104.8891,8.797],[104.8597,8.7877],[104.83,8.7754],[104.812,8.7722],[104.804,8.7757],[104.7936,8.7868],[104.7874,8.7957],[104.7811,8.8099],[104.7817,8.8293],[104.7994,8.8981],[104.8033,8.9307],[104.8048,8.9807],[104.8022,9.0182],[104.8047,9.028],[104.8041,9.0462],[104.8055,9.0479],[104.8041,9.0483],[104.8054,9.0496],[104.8041,9.0534],[104.8077,9.0798],[104.8104,9.138],[104.8077,9.1809],[104.8164,9.2159],[104.8201,9.2475],[104.8225,9.2492],[104.8206,9.2525],[104.8211,9.2692],[104.8241,9.3329],[104.8264,9.3431],[104.8246,9.3502],[104.8292,9.375],[104.8267,9.3789],[104.8282,9.3816],[104.8272,9.384],[104.8294,9.3862],[104.8313,9.4127],[104.8317,9.4633],[104.8355,9.5306],[104.8458,9.5294],[104.8544,9.5179],[104.8812,9.494],[104.9165,9.5617],[104.9459,9.5327],[104.9631,9.5559],[104.9738,9.5463],[104.9927,9.539],[104.9976,9.5431],[105.0031,9.5585],[105.1318,9.4809],[105.2622,9.3993],[105.2781,9.4329],[105.2885,9.4351],[105.2947,9.4336],[105.2911,9.4563],[105.2913,9.4675],[105.2927,9.477],[105.2958,9.4822],[105.294,9.4842],[105.294,9.4904],[105.298,9.4943],[105.2988,9.5051],[105.301,9.5069],[105.3054,9.5036],[105.3098,9.5073],[105.3155,9.5025],[105.3169,9.5051],[105.3158,9.5103],[105.3234,9.5169],[105.3199,9.5251],[105.327,9.525],[105.3298,9.5276],[105.3264,9.5315],[105.3266,9.5394],[105.3224,9.5454],[105.3238,9.5588],[105.3181,9.5604],[105.3097,9.5557],[105.3076,9.5563],[105.308,9.564],[105.3126,9.5723],[105.2949,9.5846],[105.2909,9.5947],[105.2864,9.5998],[105.2889,9.6141],[105.2861,9.6245],[105.2935,9.6376],[105.2968,9.6302],[105.3033,9.6286],[105.3029,9.6206],[105.3085,9.6078],[105.3236,9.6041],[105.3292,9.5993],[105.3319,9.6042],[105.3382,9.6061],[105.3391,9.6114],[105.3414,9.6126],[105.3423,9.604],[105.3479,9.5994],[105.3448,9.5949],[105.3452,9.5928],[105.3507,9.5941],[105.3634,9.5924],[105.3695,9.5877],[105.3719,9.5899],[105.3706,9.5958],[105.3727,9.5969],[105.3765,9.5933],[105.3774,9.5872],[105.3792,9.5858],[105.3848,9.5867],[105.39,9.5905],[105.3956,9.5884],[105.3996,9.5939],[105.399,9.5984],[105.4105,9.5979],[105.4152,9.602],[105.4179,9.6002],[105.4165,9.5948],[105.4178,9.5928],[105.423,9.5956],[105.4287,9.5952],[105.4296,9.601],[105.4412,9.5947],[105.4465,9.5971],[105.4499,9.5868],[105.4562,9.5903],[105.4622,9.5868],[105.4686,9.5915],[105.4702,9.5974],[105.4774,9.5912],[105.4755,9.5846],[105.4854,9.5847],[105.4892,9.5821],[105.493,9.5861],[105.4929,9.5907],[105.5045,9.5911],[105.5043,9.5862],[105.5122,9.5839],[105.5146,9.5897],[105.521,9.5888],[105.5217,9.5948],[105.5312,9.5952],[105.5355,9.5972],[105.5374,9.5916],[105.544,9.5852],[105.5461,9.5863],[105.5471,9.5849],[105.5506,9.5735],[105.5549,9.5677],[105.5551,9.5569],[105.5503,9.5233],[105.5517,9.5226],[105.544,9.471],[105.5463,9.4701],[105.5443,9.4691],[105.5453,9.4506],[105.5805,9.4114],[105.5876,9.4236],[105.5956,9.4194],[105.6002,9.4232],[105.6027,9.4206],[105.6018,9.4173],[105.6078,9.4128],[105.6117,9.4123],[105.6154,9.4064],[105.6196,9.4153],[105.6391,9.4089],[105.6387,9.4074],[105.641,9.4066],[105.6411,9.4015],[105.6367,9.3961],[105.6424,9.3938],[105.6475,9.3952],[105.6503,9.3919],[105.6499,9.3874],[105.6526,9.388],[105.6561,9.3848],[105.6639,9.3889],[105.6731,9.3908],[105.6774,9.3842],[105.6836,9.3846],[105.688,9.379],[105.6941,9.3798],[105.7016,9.3774],[105.7055,9.3779],[105.7071,9.3841],[105.7079,9.3945],[105.7051,9.3964],[105.7098,9.3975],[105.7163,9.3908],[105.7206,9.3922],[105.7237,9.3903],[105.7244,9.3931],[105.727,9.3927],[105.7283,9.3957],[105.732,9.3939],[105.7377,9.3953],[105.737,9.4016],[105.7416,9.4001],[105.744,9.4034],[105.7466,9.4037],[105.7456,9.406],[105.7516,9.4065],[105.7512,9.4109],[105.7535,9.4086],[105.7559,9.4109],[105.7577,9.4096],[105.7618,9.4138],[105.7654,9.4099],[105.7668,9.411],[105.769,9.409],[105.7719,9.4114],[105.7783,9.4024],[105.7853,9.4006],[105.7765,9.394],[105.7856,9.3828],[105.7905,9.3841],[105.7901,9.3805],[105.7927,9.3774],[105.7963,9.3773],[105.7989,9.3745],[105.8057,9.376],[105.8088,9.3717],[105.815,9.3701],[105.8175,9.3707],[105.818,9.373],[105.8148,9.3742],[105.8137,9.377],[105.819,9.3788],[105.8224,9.3856],[105.8209,9.394],[105.8272,9.3924],[105.8283,9.3903],[105.8322,9.3915],[105.8354,9.3992],[105.8314,9.399],[105.8314,9.4011],[105.8372,9.4009],[105.8404,9.4041],[105.8432,9.4042],[105.8424,9.3999],[105.8473,9.3984],[105.8486,9.3893],[105.8529,9.3885],[105.8525,9.3849],[105.8573,9.3837],[105.853,9.3802],[105.8541,9.3758],[105.8574,9.3727],[105.8573,9.3665],[105.8605,9.3646],[105.859,9.3599],[105.855,9.3602],[105.8501,9.3555],[105.83,9.3486],[105.8121,9.3393],[105.826,9.2765],[105.8192,9.2725],[105.8274,9.2449],[105.8263,9.2433],[105.7838,9.2254],[105.7799,9.2209],[105.7524,9.2049],[105.7425,9.2034],[105.7408,9.1998],[105.7192,9.1935],[105.6722,9.1729],[105.673,9.1687],[105.6614,9.1676],[105.6435,9.1576],[105.6274,9.153],[105.5994,9.1397],[105.582,9.1351],[105.5422,9.1197],[105.5206,9.1083],[105.5167,9.1032],[105.5082,9.1013],[105.4669,9.0703],[105.4464,9.0503],[105.4244,9.0213],[105.4144,9.0162],[105.4025,9.005],[105.3982,8.9975],[105.3954,8.9964],[105.3909,8.9741],[105.3881,8.9681],[105.3883,8.9568],[105.3853,8.9479],[105.3713,8.921],[105.3712,8.9166],[105.3674,8.9112],[105.3668,8.9031],[105.3644,8.9019],[105.3648,8.8973],[105.3624,8.8957],[105.3468,8.86],[105.3335,8.8378],[105.3269,8.8316],[105.3275,8.8295],[105.3174,8.8248],[105.3105,8.8139],[105.2688,8.7702],[105.2337,8.7572],[105.2211,8.7568],[105.2086,8.7525],[105.1938,8.7462],[105.1933,8.7432],[105.1859,8.7431],[105.1835,8.739],[105.179,8.7379],[105.1732,8.7254],[105.1686,8.7224],[105.1594,8.7084],[105.1514,8.7043],[105.1416,8.6919],[105.1389,8.6837],[105.1294,8.6713],[105.1301,8.6614],[105.1281,8.6566],[105.1182,8.644],[105.1124,8.6422],[105.1068,8.6353],[105.0884,8.631],[105.0723,8.6234],[105.064,8.6225],[105.0639,8.6252],[105.053,8.6218],[105.0186,8.6072],[105.009,8.601],[105.0011,8.5989],[104.9835,8.6008],[104.973,8.5963],[104.9666,8.5902],[104.9603,8.5882],[104.9248,8.5826],[104.8935,8.5734],[104.8529,8.5672]]]]}},{"type":"Feature","properties":{"ma":"33","ten":"Cần Thơ"},"geometry":{"type":"MultiPolygon","coordinates":[[[[105.8803,9.2668],[105.8665,9.2598],[105.8645,9.2607],[105.8535,9.254],[105.8456,9.2527],[105.8274,9.2449],[105.8197,9.2704],[105.8192,9.2725],[105.826,9.2765],[105.8121,9.3393],[105.83,9.3486],[105.8501,9.3555],[105.855,9.3602],[105.859,9.3599],[105.8605,9.3637],[105.8571,9.3669],[105.8574,9.3727],[105.8541,9.3758],[105.853,9.3802],[105.8571,9.3823],[105.8571,9.384],[105.8528,9.3847],[105.8531,9.3883],[105.8486,9.3893],[105.8485,9.3959],[105.8464,9.3995],[105.8425,9.3997],[105.8429,9.4044],[105.8372,9.4009],[105.8314,9.4011],[105.8314,9.399],[105.8354,9.3992],[105.8322,9.3915],[105.8283,9.3903],[105.8272,9.3924],[105.8209,9.394],[105.8224,9.3856],[105.819,9.3788],[105.8137,9.377],[105.8148,9.3742],[105.818,9.373],[105.8175,9.3707],[105.815,9.3701],[105.8088,9.3717],[105.8057,9.376],[105.7989,9.3745],[105.7963,9.3773],[105.7927,9.3774],[105.7901,9.3805],[105.7905,9.3841],[105.7856,9.3828],[105.7765,9.394],[105.7853,9.4006],[105.7783,9.4024],[105.7719,9.4114],[105.769,9.409],[105.7668,9.411],[105.7654,9.4099],[105.7618,9.4138],[105.7577,9.4096],[105.7559,9.4109],[105.7535,9.4086],[105.7512,9.4109],[105.7516,9.4065],[105.7456,9.406],[105.7466,9.4037],[105.744,9.4034],[105.7416,9.4001],[105.737,9.4016],[105.7377,9.3953],[105.732,9.3939],[105.7283,9.3957],[105.727,9.3927],[105.7244,9.3931],[105.7237,9.3903],[105.7206,9.3922],[105.7163,9.3908],[105.7098,9.3975],[105.7051,9.3964],[105.7079,9.3945],[105.7071,9.3841],[105.7055,9.3779],[105.7016,9.3774],[105.6941,9.3798],[105.688,9.379],[105.6836,9.3846],[105.6774,9.3842],[105.6731,9.3908],[105.6639,9.3889],[105.6561,9.3848],[105.6526,9.388],[105.6499,9.3874],[105.6503,9.3919],[105.6475,9.3952],[105.6424,9.3938],[105.6367,9.3961],[105.6411,9.4015],[105.641,9.4066],[105.6387,9.4074],[105.6391,9.4089],[105.6196,9.4153],[105.6154,9.4064],[105.6117,9.4123],[105.6078,9.4128],[105.6018,9.4173],[105.6027,9.4206],[105.6002,9.4232],[105.5956,9.4194],[105.5876,9.4236],[105.5805,9.4114],[105.5453,9.4506],[105.5443,9.4691],[105.5463,9.4701],[105.544,9.471],[105.5517,9.5226],[105.5503,9.5233],[105.5551,9.5569],[105.5549,9.5677],[105.5506,9.5735],[105.5471,9.5849],[105.5461,9.5863],[105.544,9.5852],[105.5374,9.5916],[105.5355,9.5972],[105.5312,9.5952],[105.5217,9.5948],[105.521,9.5888],[105.5146,9.5897],[105.5122,9.5839],[105.5043,9.5862],[105.5045,9.5911],[105.4929,9.5907],[105.493,9.5861],[105.4892,9.5821],[105.4854,9.5847],[105.4755,9.5846],[105.4774,9.5912],[105.4702,9.5974],[105.4686,9.5915],[105.4622,9.5868],[105.4562,9.5903],[105.4499,9.5868],[105.4465,9.5971],[105.4412,9.5947],[105.4296,9.601],[105.4287,9.5952],[105.423,9.5956],[105.4178,9.5928],[105.4165,9.5948],[105.4179,9.6002],[105.4152,9.602],[105.4105,9.5979],[105.399,9.5984],[105.3996,9.5939],[105.3951,9.5882],[105.39,9.5905],[105.3833,9.5862],[105.3774,9.5872],[105.3769,9.5925],[105.3738,9.5961],[105.376,9.5989],[105.3752,9.6109],[105.3812,9.6194],[105.3884,9.6219],[105.3902,9.6258],[105.3994,9.622],[105.3995,9.6317],[105.407,9.6436],[105.4068,9.645],[105.4017,9.6447],[105.4012,9.6464],[105.4067,9.6522],[105.404,9.6524],[105.3938,9.6603],[105.3871,9.658],[105.3774,9.6613],[105.37,9.6594],[105.3686,9.6635],[105.3739,9.6696],[105.3725,9.6728],[105.3571,9.6685],[105.355,9.6697],[105.3525,9.6765],[105.3395,9.676],[105.338,9.6779],[105.3378,9.6885],[105.3286,9.6975],[105.328,9.7015],[105.3388,9.7037],[105.3565,9.7123],[105.3704,9.7295],[105.3767,9.7328],[105.3905,9.7356],[105.3925,9.738],[105.3933,9.7445],[105.403,9.7503],[105.4112,9.7486],[105.4152,9.7548],[105.4147,9.7579],[105.4127,9.7611],[105.4069,9.7598],[105.4049,9.7697],[105.4143,9.7708],[105.4135,9.7727],[105.4094,9.7719],[105.4109,9.7773],[105.4163,9.7735],[105.4169,9.7753],[105.4138,9.7788],[105.4193,9.7773],[105.4177,9.7828],[105.4219,9.7784],[105.4225,9.7853],[105.4251,9.7828],[105.4271,9.7834],[105.4278,9.7852],[105.4255,9.7869],[105.4285,9.7894],[105.4311,9.7884],[105.4313,9.7908],[105.4337,9.7903],[105.4353,9.7932],[105.4373,9.7927],[105.4339,9.7961],[105.4306,9.816],[105.4615,9.8253],[105.4678,9.8303],[105.4766,9.8326],[105.5211,9.8591],[105.5167,9.8631],[105.5396,9.913],[105.3647,10.073],[105.3568,10.0825],[105.3531,10.1006],[105.3171,10.1412],[105.3105,10.1348],[105.3033,10.1436],[105.2982,10.1385],[105.2758,10.1608],[105.2257,10.201],[105.2531,10.2385],[105.2609,10.2459],[105.2671,10.2389],[105.2889,10.2599],[105.2875,10.2621],[105.3013,10.277],[105.3065,10.2689],[105.312,10.2739],[105.3362,10.2344],[105.3972,10.2528],[105.4414,10.2697],[105.4267,10.303],[105.4433,10.3062],[105.4478,10.3047],[105.4514,10.308],[105.4771,10.3106],[105.4846,10.3164],[105.4873,10.3239],[105.4954,10.3253],[105.5127,10.308],[105.5421,10.2927],[105.5645,10.274],[105.5993,10.2391],[105.6165,10.2137],[105.6249,10.1864],[105.6463,10.1668],[105.6569,10.1513],[105.709,10.1173],[105.7327,10.0994],[105.7519,10.09],[105.7654,10.0782],[105.781,10.0701],[105.7889,10.0628],[105.8131,10.0308],[105.8261,10.0054],[105.8597,9.9665],[105.8768,9.9512],[105.906,9.932],[105.9192,9.9315],[105.9605,9.902],[105.9718,9.8885],[105.9804,9.8838],[105.9958,9.8656],[106.0017,9.8512],[106.0227,9.8258],[106.0511,9.8025],[106.0716,9.776],[106.0931,9.7647],[106.1112,9.7512],[106.1717,9.6855],[106.2475,9.6175],[106.2997,9.5859],[106.2926,9.5765],[106.2924,9.5642],[106.2876,9.5462],[106.2816,9.5329],[106.278,9.53],[106.2796,9.5285],[106.2752,9.5256],[106.2749,9.5214],[106.2681,9.5084],[106.2476,9.4929],[106.2382,9.4916],[106.2276,9.4849],[106.2101,9.4777],[106.2049,9.4552],[106.1815,9.4364],[106.1721,9.4247],[106.1738,9.4197],[106.185,9.4172],[106.1868,9.415],[106.1884,9.4019],[106.1858,9.3857],[106.1871,9.3802],[106.1813,9.3704],[106.1659,9.3563],[106.1372,9.3363],[106.1324,9.3362],[106.1246,9.3317],[106.1064,9.3276],[106.1047,9.3283],[106.1078,9.3296],[106.1075,9.3333],[106.1042,9.3364],[106.0988,9.3362],[106.0633,9.3245],[106.06,9.3208],[106.045,9.3193],[106.0209,9.3107],[106.0196,9.3123],[106.0141,9.3081],[105.9866,9.3009],[105.9795,9.296],[105.9746,9.2976],[105.9302,9.283],[105.9221,9.282],[105.8803,9.2668]]]]}},{"type":"Feature","properties":{"ma":"31","ten":"Đồng Tháp"},"geometry":{"type":"MultiPolygon","coordinates":[[[[106.7905,10.2133],[106.789,10.2182],[106.7844,10.223],[106.7893,10.2243],[106.7958,10.2185],[106.8014,10.2084],[106.7885,10.2011],[106.7858,10.2039],[106.7905,10.2133]]],[[[105.8978,10.274],[105.8935,10.2759],[105.8847,10.267],[105.8775,10.2631],[105.8824,10.2567],[105.8846,10.2579],[105.884,10.2537],[105.8903,10.2442],[105.9019,10.245],[105.9012,10.2342],[105.9123,10.2267],[105.9197,10.2113],[105.9132,10.1924],[105.8996,10.1918],[105.8952,10.1855],[105.889,10.1888],[105.8861,10.1869],[105.8833,10.1889],[105.8762,10.1892],[105.8773,10.1823],[105.8701,10.1689],[105.8743,10.1663],[105.8705,10.1545],[105.8629,10.1549],[105.8516,10.1601],[105.8491,10.1502],[105.8283,10.1488],[105.8185,10.1495],[105.8155,10.1528],[105.8011,10.1555],[105.7748,10.189],[105.7658,10.1793],[105.7591,10.1826],[105.7477,10.1969],[105.7278,10.2047],[105.6854,10.1435],[105.6869,10.1391],[105.6823,10.1345],[105.6569,10.1513],[105.6463,10.1668],[105.6249,10.1864],[105.6165,10.2137],[105.5993,10.2391],[105.5645,10.274],[105.5421,10.2927],[105.5127,10.308],[105.4877,10.3346],[105.4915,10.3384],[105.4911,10.3455],[105.4976,10.3501],[105.4999,10.3541],[105.5077,10.3558],[105.5141,10.3619],[105.521,10.3634],[105.5206,10.3695],[105.529,10.3764],[105.5238,10.4001],[105.5297,10.4004],[105.5318,10.4082],[105.5366,10.4098],[105.5396,10.4132],[105.5453,10.4128],[105.5526,10.4169],[105.5523,10.4188],[105.5465,10.4205],[105.5495,10.4248],[105.5486,10.4295],[105.5514,10.4294],[105.5548,10.4343],[105.5668,10.4292],[105.574,10.4287],[105.5728,10.4396],[105.5753,10.4474],[105.5736,10.4685],[105.5532,10.5167],[105.5442,10.528],[105.532,10.5378],[105.5132,10.547],[105.4884,10.5423],[105.4823,10.5357],[105.4787,10.5355],[105.4458,10.5528],[105.4188,10.5497],[105.413,10.5512],[105.3937,10.5689],[105.3711,10.5732],[105.3469,10.6238],[105.3392,10.6536],[105.3379,10.6734],[105.346,10.6924],[105.3503,10.7148],[105.3446,10.7208],[105.3371,10.7233],[105.3004,10.7161],[105.2893,10.7179],[105.2778,10.7235],[105.2755,10.7285],[105.2784,10.7337],[105.3021,10.7489],[105.3041,10.7536],[105.3038,10.7588],[105.2984,10.7626],[105.2752,10.7639],[105.2641,10.7691],[105.2606,10.7723],[105.2584,10.7803],[105.2619,10.7919],[105.2613,10.7999],[105.2346,10.8057],[105.2195,10.8266],[105.2095,10.8495],[105.1993,10.8453],[105.1942,10.8471],[105.1903,10.8551],[105.1854,10.8832],[105.1854,10.8969],[105.189,10.9118],[105.1981,10.9116],[105.2156,10.8996],[105.2402,10.892],[105.265,10.8961],[105.2747,10.8888],[105.2849,10.8877],[105.3383,10.8597],[105.3381,10.8657],[105.3406,10.8678],[105.344,10.8664],[105.3482,10.8683],[105.3495,10.8721],[105.3527,10.8739],[105.3537,10.8795],[105.3598,10.8806],[105.3595,10.8868],[105.3681,10.8878],[105.37,10.8936],[105.3691,10.8969],[105.3716,10.8979],[105.3731,10.9036],[105.3804,10.9029],[105.3789,10.9056],[105.3808,10.9064],[105.3806,10.9107],[105.3833,10.9107],[105.3846,10.9169],[105.3888,10.9208],[105.3913,10.9204],[105.3933,10.9244],[105.3964,10.9239],[105.3965,10.9276],[105.3991,10.9262],[105.3998,10.9285],[105.4019,10.9279],[105.408,10.9313],[105.406,10.933],[105.4063,10.9356],[105.4112,10.9395],[105.4105,10.9433],[105.4234,10.9648],[105.4258,10.9727],[105.4334,10.973],[105.4421,10.9602],[105.4516,10.9545],[105.4566,10.9563],[105.4646,10.9642],[105.4709,10.9629],[105.4732,10.9646],[105.4832,10.9581],[105.4823,10.9541],[105.484,10.9518],[105.4963,10.9474],[105.4972,10.9521],[105.4993,10.953],[105.5163,10.9224],[105.5474,10.9099],[105.5826,10.8919],[105.6127,10.832],[105.5959,10.8306],[105.7806,10.6587],[105.8079,10.6536],[105.8347,10.6383],[105.91,10.5386],[105.9981,10.5326],[106.1024,10.5228],[106.1012,10.5758],[106.1965,10.5804],[106.2047,10.5792],[106.2861,10.587],[106.3104,10.5655],[106.3184,10.5707],[106.3213,10.5691],[106.3401,10.5463],[106.3461,10.5433],[106.3483,10.5448],[106.3476,10.5288],[106.351,10.5287],[106.3559,10.5225],[106.3612,10.5236],[106.3694,10.518],[106.3665,10.5111],[106.3716,10.5065],[106.3687,10.498],[106.3744,10.4942],[106.3705,10.4877],[106.3789,10.483],[106.3796,10.4801],[106.3842,10.4793],[106.3888,10.4756],[106.3928,10.4773],[106.396,10.4857],[106.4003,10.4845],[106.4036,10.4933],[106.4099,10.4894],[106.4166,10.4885],[106.4174,10.4819],[106.424,10.4785],[106.4257,10.4739],[106.43,10.4739],[106.4344,10.4686],[106.4358,10.4695],[106.4395,10.4662],[106.4417,10.4666],[106.4415,10.4586],[106.4528,10.4533],[106.4538,10.4511],[106.4475,10.4512],[106.4426,10.4444],[106.4396,10.4454],[106.4355,10.4391],[106.4276,10.4367],[106.4273,10.4339],[106.4177,10.4347],[106.4152,10.4331],[106.4149,10.4297],[106.4212,10.4276],[106.4203,10.4224],[106.4263,10.4144],[106.4247,10.4113],[106.4278,10.4098],[106.4313,10.415],[106.4392,10.4117],[106.4405,10.4151],[106.4492,10.4112],[106.4519,10.4134],[106.4602,10.4049],[106.4546,10.4007],[106.4489,10.4044],[106.4488,10.3984],[106.454,10.4003],[106.4562,10.3946],[106.4589,10.3951],[106.4633,10.4004],[106.4679,10.3964],[106.4727,10.3987],[106.4801,10.3967],[106.4815,10.4047],[106.4862,10.4034],[106.4864,10.4087],[106.4929,10.4138],[106.4968,10.4145],[106.4973,10.4166],[106.4992,10.4151],[106.5046,10.4229],[106.5084,10.4227],[106.5102,10.4282],[106.5137,10.4286],[106.5145,10.4257],[106.5189,10.4243],[106.5242,10.4308],[106.5293,10.4335],[106.5373,10.4206],[106.5454,10.4293],[106.5489,10.4248],[106.5575,10.4251],[106.5591,10.423],[106.5577,10.4162],[106.5589,10.4131],[106.5673,10.4148],[106.5713,10.412],[106.5892,10.4184],[106.584,10.4325],[106.5853,10.4358],[106.6012,10.4377],[106.6117,10.4451],[106.6281,10.4523],[106.6332,10.4594],[106.639,10.4793],[106.6445,10.4832],[106.6533,10.4828],[106.6586,10.4771],[106.6607,10.4667],[106.66,10.4495],[106.6629,10.4435],[106.6715,10.4385],[106.6821,10.4398],[106.6896,10.4462],[106.7049,10.4711],[106.7359,10.4981],[106.744,10.5],[106.7454,10.4884],[106.7631,10.4524],[106.7777,10.4331],[106.8151,10.3913],[106.8225,10.3774],[106.7827,10.3756],[106.7819,10.3144],[106.7806,10.312],[106.7825,10.308],[106.7817,10.2926],[106.7753,10.2827],[106.7558,10.2663],[106.7802,10.2488],[106.7765,10.237],[106.781,10.2224],[106.777,10.2179],[106.7566,10.2055],[106.7543,10.191],[106.7093,10.2123],[106.6912,10.2309],[106.6778,10.2366],[106.6567,10.241],[106.6424,10.2406],[106.5958,10.2496],[106.5419,10.2656],[106.5301,10.2716],[106.5185,10.2821],[106.4976,10.2913],[106.4772,10.3066],[106.4572,10.3079],[106.4483,10.3065],[106.4025,10.3342],[106.3942,10.338],[106.3825,10.3402],[106.372,10.3402],[106.3592,10.3372],[106.3047,10.3192],[106.3001,10.3196],[106.288,10.3306],[106.2548,10.3216],[106.2145,10.3163],[106.2032,10.3133],[106.1429,10.2841],[106.1044,10.2841],[106.0964,10.2781],[106.0887,10.2762],[106.0767,10.2783],[106.0346,10.2988],[105.9949,10.3289],[105.983,10.3311],[105.9748,10.3289],[105.9693,10.3247],[105.9269,10.2837],[105.8978,10.274]]]]}},{"type":"Feature","properties":{"ma":"30","ten":"Vĩnh Long"},"geometry":{"type":"MultiPolygon","coordinates":[[[[106.1717,9.6855],[106.1112,9.7512],[106.0931,9.7647],[106.0716,9.776],[106.0511,9.8025],[106.0227,9.8258],[106.0017,9.8512],[105.9958,9.8656],[105.9804,9.8838],[105.9718,9.8885],[105.9605,9.902],[105.9192,9.9315],[105.906,9.932],[105.8768,9.9512],[105.8597,9.9665],[105.8261,10.0054],[105.8131,10.0308],[105.7889,10.0628],[105.781,10.0701],[105.7654,10.0782],[105.7519,10.09],[105.7327,10.0994],[105.6823,10.1345],[105.6869,10.1391],[105.6854,10.1435],[105.7278,10.2047],[105.7477,10.1969],[105.7591,10.1826],[105.7658,10.1793],[105.7748,10.189],[105.8011,10.1555],[105.8155,10.1528],[105.8185,10.1495],[105.8283,10.1488],[105.8491,10.1502],[105.8516,10.1601],[105.8629,10.1549],[105.8705,10.1545],[105.8743,10.1663],[105.8701,10.1689],[105.8773,10.1823],[105.8762,10.1892],[105.8833,10.1889],[105.8861,10.1869],[105.889,10.1888],[105.8952,10.1855],[105.8996,10.1918],[105.9132,10.1924],[105.9197,10.2113],[105.9123,10.2267],[105.9012,10.2342],[105.9019,10.245],[105.8903,10.2442],[105.884,10.2537],[105.8846,10.2579],[105.8824,10.2567],[105.8773,10.2643],[105.8847,10.267],[105.8935,10.2759],[105.9008,10.2742],[105.9269,10.2837],[105.9748,10.3289],[105.983,10.3311],[105.992,10.3305],[106.0346,10.2988],[106.0767,10.2783],[106.0887,10.2762],[106.0964,10.2781],[106.1044,10.2841],[106.1429,10.2841],[106.2032,10.3133],[106.2145,10.3163],[106.2548,10.3216],[106.288,10.3306],[106.3001,10.3196],[106.3047,10.3192],[106.3592,10.3372],[106.3773,10.3405],[106.3875,10.3397],[106.4025,10.3342],[106.4483,10.3065],[106.4572,10.3079],[106.4772,10.3066],[106.4976,10.2913],[106.5185,10.2821],[106.5301,10.2716],[106.5419,10.2656],[106.5904,10.2508],[106.6424,10.2406],[106.6658,10.2396],[106.6912,10.2309],[106.7093,10.2123],[106.7543,10.191],[106.7533,10.1807],[106.7662,10.1758],[106.7777,10.1687],[106.7899,10.1485],[106.7853,10.1269],[106.7903,10.1176],[106.79,10.1122],[106.7838,10.0974],[106.7672,10.0758],[106.7341,10.0403],[106.7086,10.0278],[106.6971,10.0267],[106.6905,10.0213],[106.6889,10.0161],[106.6808,10.005],[106.6755,10.0047],[106.6662,9.9996],[106.6505,9.9789],[106.6493,9.9358],[106.6628,9.9259],[106.6707,9.9032],[106.6783,9.8984],[106.6872,9.8852],[106.6865,9.8773],[106.6646,9.8401],[106.6457,9.8183],[106.6274,9.8001],[106.5794,9.7599],[106.5639,9.7424],[106.5673,9.7382],[106.5704,9.7201],[106.5702,9.6969],[106.5724,9.6952],[106.5751,9.6967],[106.5789,9.6928],[106.5813,9.6775],[106.5807,9.6658],[106.5691,9.6384],[106.5576,9.6167],[106.5299,9.5805],[106.5201,9.573],[106.5157,9.5729],[106.5165,9.5692],[106.488,9.5505],[106.4485,9.5364],[106.4135,9.5292],[106.4089,9.5303],[106.41,9.5341],[106.4063,9.5376],[106.3868,9.5297],[106.3741,9.5301],[106.3684,9.5343],[106.3697,9.5384],[106.3681,9.5492],[106.358,9.5557],[106.3414,9.5748],[106.3087,9.5952],[106.2997,9.5859],[106.2504,9.6153],[106.1717,9.6855]]]]}}]}